[{"OBJECT_NAME":"STARLINK-31756","OBJECT_ID":"2024-183J","EPOCH":"2026-03-09T11:21:03.667104","MEAN_MOTION":15.30187948,"ECCENTRICITY":0.0001087,"INCLINATION":53.1601,"RA_OF_ASC_NODE":143.7994,"ARG_OF_PERICENTER":100.4447,"MEAN_ANOMALY":259.6676,"EPHEMERIS_TYPE":0,"CLASSIFICATION_TYPE":"U","NORAD_CAT_ID":61517,"ELEMENT_SET_NO":999,"REV_AT_EPOCH":7961,"BSTAR":1.1884877e-5,"MEAN_MOTION_DOT":-7.0e-8,"MEAN_MOTION_DDOT":0},{"OBJECT_NAME":"TEVEL2-6","OBJECT_ID":"2025-052F","EPOCH":"2026-03-09T15:35:24.554400","MEAN_MOTION":15.30760889,"ECCENTRICITY":0.0004769,"INCLINATION":97.4016,"RA_OF_ASC_NODE":325.0381,"ARG_OF_PERICENTER":95.6604,"MEAN_ANOMALY":264.5181,"EPHEMERIS_TYPE":0,"CLASSIFICATION_TYPE":"U","NORAD_CAT_ID":63215,"ELEMENT_SET_NO":999,"REV_AT_EPOCH":5486,"BSTAR":0.00070909,"MEAN_MOTION_DOT":0.00021046,"MEAN_MOTION_DDOT":0}]
